[{"OBJECT_NAME":"ONEWEB-0375","OBJECT_ID":"2021-090Y","EPOCH":"2026-03-09T15:09:00.735264","MEAN_MOTION":13.20771291,"ECCENTRICITY":0.0001311,"INCLINATION":87.9171,"RA_OF_ASC_NODE":294.3117,"ARG_OF_PERICENTER":66.2917,"MEAN_ANOMALY":293.8354,"EPHEMERIS_TYPE":0,"CLASSIFICATION_TYPE":"U","NORAD_CAT_ID":49301,"ELEMENT_SET_NO":999,"REV_AT_EPOCH":21738,"BSTAR":-0.00021076,"MEAN_MOTION_DOT":-7.3e-7,"MEAN_MOTION_DDOT":0},{"OBJECT_NAME":"THORAD DELTA 1 DEB","OBJECT_ID":"1974-089DU","EPOCH":"2026-03-09T21:30:08.426304","MEAN_MOTION":13.52640428,"ECCENTRICITY":0.02800466,"INCLINATION":103.0102,"RA_OF_ASC_NODE":55.2201,"ARG_OF_PERICENTER":154.2211,"MEAN_ANOMALY":207.3176,"EPHEMERIS_TYPE":0,"CLASSIFICATION_TYPE":"U","NORAD_CAT_ID":9695,"ELEMENT_SET_NO":999,"REV_AT_EPOCH":42691,"BSTAR":0.0016352715,"MEAN_MOTION_DOT":1.321e-5,"MEAN_MOTION_DDOT":0}]
